[{"OBJECT_NAME":"SAUDISAT 5A","OBJECT_ID":"2018-102A","EPOCH":"2026-03-09T23:40:00.596928","MEAN_MOTION":15.26941021,"ECCENTRICITY":0.00113651,"INCLINATION":97.3185,"RA_OF_ASC_NODE":132.4981,"ARG_OF_PERICENTER":121.7113,"MEAN_ANOMALY":238.5235,"EPHEMERIS_TYPE":0,"CLASSIFICATION_TYPE":"U","NORAD_CAT_ID":43831,"ELEMENT_SET_NO":999,"REV_AT_EPOCH":40053,"BSTAR":0.00030305233,"MEAN_MOTION_DOT":7.96e-5,"MEAN_MOTION_DDOT":0},{"OBJECT_NAME":"STARLINK-30958","OBJECT_ID":"2023-183W","EPOCH":"2026-03-09T22:00:12.821184","MEAN_MOTION":15.26795623,"ECCENTRICITY":0.00015804,"INCLINATION":42.9986,"RA_OF_ASC_NODE":39.9433,"ARG_OF_PERICENTER":279.4856,"MEAN_ANOMALY":80.5817,"EPHEMERIS_TYPE":0,"CLASSIFICATION_TYPE":"U","NORAD_CAT_ID":58457,"ELEMENT_SET_NO":999,"REV_AT_EPOCH":12677,"BSTAR":0.0011696043,"MEAN_MOTION_DOT":0.000313,"MEAN_MOTION_DDOT":0}]
